STARLINK-2280           
1 47861U 21021B   26068.71343120 -.00001582  00000+0 -42507-4 0  9994
2 47861  53.1606 257.8343 0000901  86.4428 273.6676 15.29346680276403
AL MUNTHER              
1 63240U 25052AG  26068.64540749  .00017933  00000+0  65015-3 0  9992
2 63240  97.4001 323.9152 0008027 130.7043 229.4895 15.28381521 54798
